CTC1_L_00129016-03
1 11273U 22685QT  26070.40832176  .00000000  00000+0  00000-0 0  9992
2 11273  90.0000 180.0000 0000000   0.0000   0.0000 14.24551792    15
CTC1_L_00129016-04
1 11274U 24019SQ  26070.40832176  .00000000  00000+0  00000-0 0  9996
2 11274  90.0000 180.0000 0000000   0.0000  90.0000 14.24551792    15
CTC1_L_00129017-01
1 11275U 25089PX  26070.40832176  .00000000  00000+0  00000-0 0  9995
2 11275  90.0000 192.0000 0000000   0.0000 192.0000 14.24551792    12
CTC1_L_00129017-02
1 11276U 22362LC  26070.40832176  .00000000  00000+0  00000-0 0  9997
2 11276  90.0000 192.0000 0000000   0.0000 282.0000 14.24551792    13
CTC1_L_00129017-03
1 11277U 24026MU  26070.40832176  .00000000  00000+0  00000-0 0  9997
2 11277  90.0000 192.0000 0000000   0.0000  12.0000 14.24551792    15
CTC1_L_00129017-04
1 11278U 26079TS  26070.40832176  .00000000  00000+0  00000-0 0  9998
2 11278  90.0000 192.0000 0000000   0.0000 102.0000 14.24551792    16
CTC1_L_00129018-01
1 11279U 22074DO  26070.40832176  .00000000  00000+0  00000-0 0  9990
2 11279  90.0000 204.0000 0000000   0.0000 204.0000 14.24551792    14
CTC1_L_00129018-02
1 11280U 26225FD  26070.40832176  .00000000  00000+0  00000-0 0  9994
2 11280  90.0000 204.0000 0000000   0.0000 294.0000 14.24551792    15
CTC1_L_00129018-03
1 11281U 25485TD  26070.40832176  .00000000  00000+0  00000-0 0  9992
2 11281  90.0000 204.0000 0000000   0.0000  24.0000 14.24551792    17
CTC1_L_00129018-04
1 11282U 22677LL  26070.40832176  .00000000  00000+0  00000-0 0  9993
2 11282  90.0000 204.0000 0000000   0.0000 114.0000 14.24551792    18
CTC1_L_00129019-01
1 11283U 25050PJ  26070.40832176  .00000000  00000+0  00000-0 0  9992
2 11283  90.0000 216.0000 0000000   0.0000 216.0000 14.24551792    15
CTC1_L_00129019-02
1 11284U 24513FZ  26070.40832176  .00000000  00000+0  00000-0 0  9996
2 11284  90.0000 216.0000 0000000   0.0000 306.0000 14.24551792    16
CTC1_L_00129019-03
1 11285U 23771II  26070.40832176  .00000000  00000+0  00000-0 0  9992
2 11285  90.0000 216.0000 0000000   0.0000  36.0000 14.24551792    17
CTC1_L_00129019-04
1 11286U 22148WM  26070.40832176  .00000000  00000+0  00000-0 0  9990
2 11286  90.0000 216.0000 0000000   0.0000 126.0000 14.24551792    18
CTC1_L_00129020-01
1 11287U 22148CJ  26070.40832176  .00000000  00000+0  00000-0 0  9991
2 11287  90.0000 228.0000 0000000   0.0000 228.0000 14.24551792    15
CTC1_L_00129020-02
1 11288U 25216VS  26070.40832176  .00000000  00000+0  00000-0 0  9991
2 11288  90.0000 228.0000 0000000   0.0000 318.0000 14.24551792    16
CTC1_L_00129020-03
1 11289U 26607GC  26070.40832176  .00000000  00000+0  00000-0 0  9997
2 11289  90.0000 228.0000 0000000   0.0000  48.0000 14.24551792    17
CTC1_L_00129020-04
1 11290U 23947KN  26070.40832176  .00000000  00000+0  00000-0 0  9993
2 11290  90.0000 228.0000 0000000   0.0000 138.0000 14.24551792    19
CTC1_L_00129021-01
1 11291U 25714JJ  26070.40832176  .00000000  00000+0  00000-0 0  9998
2 11291  90.0000 240.0000 0000000   0.0000 240.0000 14.24551792    18
CTC1_L_00129021-02
1 11292U 24824NN  26070.40832176  .00000000  00000+0  00000-0 0  9990
2 11292  90.0000 240.0000 0000000   0.0000 330.0000 14.24551792    19
CTC1_L_00129021-03
1 11293U 25516TA  26070.40832176  .00000000  00000+0  00000-0 0  9990
2 11293  90.0000 240.0000 0000000   0.0000  60.0000 14.24551792    10
CTC1_L_00129021-04
1 11294U 24830PK  26070.40832176  .00000000  00000+0  00000-0 0  9999
2 11294  90.0000 240.0000 0000000   0.0000 150.0000 14.24551792    11
CTC1_L_00129022-01
1 11295U 24711RA  26070.40832176  .00000000  00000+0  00000-0 0  9998
2 11295  90.0000 252.0000 0000000   0.0000 252.0000 14.24551792    18
CTC1_L_00129022-02
1 11296U 22720EO  26070.40832176  .00000000  00000+0  00000-0 0  9997
2 11296  90.0000 252.0000 0000000   0.0000 342.0000 14.24551792    19
CTC1_L_00129022-03
1 11297U 25524FH  26070.40832176  .00000000  00000+0  00000-0 0  9993
2 11297  90.0000 252.0000 0000000   0.0000  72.0000 14.24551792    10
CTC1_L_00129022-04
1 11298U 24499TE  26070.40832176  .00000000  00000+0  00000-0 0  9994
2 11298  90.0000 252.0000 0000000   0.0000 162.0000 14.24551792    11
CTC1_L_00129023-01
1 11299U 23701VM  26070.40832176  .00000000  00000+0  00000-0 0  9990
2 11299  90.0000 264.0000 0000000   0.0000 264.0000 14.24551792    18
CTC1_L_00129023-02
1 11300U 22426MY  26070.40832176  .00000000  00000+0  00000-0 0  9996
2 11300  90.0000 264.0000 0000000   0.0000 354.0000 14.24551792    11
CTC1_L_00129023-03
1 11301U 22069VH  26070.40832176  .00000000  00000+0  00000-0 0  9990
2 11301  90.0000 264.0000 0000000   0.0000  84.0000 14.24551792    12
CTC1_L_00129023-04
1 11302U 26793NO  26070.40832176  .00000000  00000+0  00000-0 0  9999
2 11302  90.0000 264.0000 0000000   0.0000 174.0000 14.24551792    13
CTC1_L_00129024-01
1 11303U 23828MJ  26070.40832176  .00000000  00000+0  00000-0 0  9996
2 11303  90.0000 276.0000 0000000   0.0000 276.0000 14.24551792    10
CTC1_L_00129024-02
1 11304U 26958X   26070.40832176  .00000000  00000+0  00000-0 0  9994
2 11304  90.0000 276.0000 0000000   0.0000   6.0000 14.24551792    12
CTC1_L_00129024-03
1 11305U 23165CN  26070.40832176  .00000000  00000+0  00000-0 0  9992
2 11305  90.0000 276.0000 0000000   0.0000  96.0000 14.24551792    12
CTC1_L_00129024-04
1 11306U 26412IP  26070.40832176  .00000000  00000+0  00000-0 0  9991
2 11306  90.0000 276.0000 0000000   0.0000 186.0000 14.24551792    13
CTC1_L_00129025-01
1 11307U 25639YN  26070.40832176  .00000000  00000+0  00000-0 0  9992
2 11307  90.0000 288.0000 0000000   0.0000 288.0000 14.24551792    10
CTC1_L_00129025-02
1 11308U 24794OC  26070.40832176  .00000000  00000+0  00000-0 0  9994
2 11308  90.0000 288.0000 0000000   0.0000  18.0000 14.24551792    12
CTC1_L_00129025-03
1 11309U 26785WE  26070.40832176  .00000000  00000+0  00000-0 0  9997
2 11309  90.0000 288.0000 0000000   0.0000 108.0000 14.24551792    13
CTC1_L_00129025-04
1 11310U 23532NB  26070.40832176  .00000000  00000+0  00000-0 0  9996
2 11310  90.0000 288.0000 0000000   0.0000 198.0000 14.24551792    14
CTC1_L_00129026-01
1 11311U 26037QQ  26070.40832176  .00000000  00000+0  00000-0 0  9990
2 11311  90.0000 300.0000 0000000   0.0000 300.0000 14.24551792    15
CTC1_L_00129026-02
1 11312U 25894HA  26070.40832176  .00000000  00000+0  00000-0 0  9991
2 11312  90.0000 300.0000 0000000   0.0000  30.0000 14.24551792    16
CTC1_L_00129026-03
1 11313U 26774AI  26070.40832176  .00000000  00000+0  00000-0 0  9990
2 11313  90.0000 300.0000 0000000   0.0000 120.0000 14.24551792    17
CTC1_L_00129026-04
1 11314U 22213PU  26070.40832176  .00000000  00000+0  00000-0 0  9995
2 11314  90.0000 300.0000 0000000   0.0000 210.0000 14.24551792    18
CTC1_L_00129027-01
1 11315U 25988YP  26070.40832176  .00000000  00000+0  00000-0 0  9998
2 11315  90.0000 312.0000 0000000   0.0000 312.0000 14.24551792    15
CTC1_L_00129027-02
1 11316U 26585IY  26070.40832176  .00000000  00000+0  00000-0 0  9993
2 11316  90.0000 312.0000 0000000   0.0000  42.0000 14.24551792    16
CTC1_L_00129027-03
1 11317U 26898IG  26070.40832176  .00000000  00000+0  00000-0 0  9991
2 11317  90.0000 312.0000 0000000   0.0000 132.0000 14.24551792    17
CTC1_L_00129027-04
1 11318U 24194TU  26070.40832176  .00000000  00000+0  00000-0 0  9999
2 11318  90.0000 312.0000 0000000   0.0000 222.0000 14.24551792    18
CTC1_L_00129028-01
1 11319U 23954UU  26070.40832176  .00000000  00000+0  00000-0 0  9993
2 11319  90.0000 324.0000 0000000   0.0000 324.0000 14.24551792    15
CTC1_L_00129028-02
1 11320U 26503PV  26070.40832176  .00000000  00000+0  00000-0 0  9998
2 11320  90.0000 324.0000 0000000   0.0000  54.0000 14.24551792    17
CTC1_L_00129028-03
1 11321U 24992JH  26070.40832176  .00000000  00000+0  00000-0 0  9999
2 11321  90.0000 324.0000 0000000   0.0000 144.0000 14.24551792    18
CTC1_L_00129028-04
1 11322U 24140TJ  26070.40832176  .00000000  00000+0  00000-0 0  9995
2 11322  90.0000 324.0000 0000000   0.0000 234.0000 14.24551792    19
CTC1_L_00129029-01
1 11323U 23207ZV  26070.40832176  .00000000  00000+0  00000-0 0  9999
2 11323  90.0000 336.0000 0000000   0.0000 336.0000 14.24551792    16
CTC1_L_00129029-02
1 11324U 24533NT  26070.40832176  .00000000  00000+0  00000-0 0  9993
2 11324  90.0000 336.0000 0000000   0.0000  66.0000 14.24551792    17
CTC1_L_00129029-03
1 11325U 24043XB  26070.40832176  .00000000  00000+0  00000-0 0  9990
2 11325  90.0000 336.0000 0000000   0.0000 156.0000 14.24551792    18
CTC1_L_00129029-04
1 11326U 26302EU  26070.40832176  .00000000  00000+0  00000-0 0  9991
2 11326  90.0000 336.0000 0000000   0.0000 246.0000 14.24551792    19
CTC1_L_00129030-01
1 11327U 26369RP  26070.40832176  .00000000  00000+0  00000-0 0  9995
2 11327  90.0000 348.0000 0000000   0.0000 348.0000 14.24551792    16
CTC1_L_00129030-02
1 11328U 23277YI  26070.40832176  .00000000  00000+0  00000-0 0  9991
2 11328  90.0000 348.0000 0000000   0.0000  78.0000 14.24551792    17
CTC1_L_00129030-03
1 11329U 26356LU  26070.40832176  .00000000  00000+0  00000-0 0  9993
2 11329  90.0000 348.0000 0000000   0.0000 168.0000 14.24551792    18
CTC1_L_00129030-04
1 11330U 25614CH  26070.40832176  .00000000  00000+0  00000-0 0  9991
2 11330  90.0000 348.0000 0000000   0.0000 258.0000 14.24551792    10
